VSP RF A1               
1 59135U 24043AP  26066.03073316  .00000577  00000+0  25199-4 0  9997
2 59135  97.5247 201.5379 0009431 234.6315 125.4042 15.26179596111403
STARLINK-34050          
1 64331U 25124Q   26068.45214715  .00022104  00000+0  81013-3 0  9996
2 64331  42.9993 123.0924 0000671 244.0897 115.9885 15.27588946 42800
